     2.10           N: GPS NAV DATA                         RINEX VERSION / TYPE
teqc  2008Oct2      gpsops              20090127 00:05:56UTCPGM / RUN BY / DATE
Linux 2.4.20-8|Pentium IV|gcc -static|Linux|486/DX+         COMMENT
soc2rnx ver 1.20    gpsops              27-Jan-2009 00:05:47COMMENT
Forced Modulo Decimation to 30 seconds                      COMMENT
MADR                                    MARKER NAME         COMMENT
13407S012                               MARKER NUMBER       COMMENT
4849202.3940 -360328.9929 4114913.1862                      COMMENT
                                                            COMMENT
This data is provided as a public service by NASA/JPL.      COMMENT
No warranty is expressed or implied regarding suitability   COMMENT
for use.  For further information, contact:                 COMMENT
Dave Stowers, NASA/JPL m/s 238-600                          COMMENT
4800 Oak Grove Drive, Pasadena CA 91109 USA                 COMMENT
                                                            END OF HEADER
11 09  1 26 15 59 44.0 9.389128535986D-06-1.136868377216D-12 0.000000000000D+00
    1.800000000000D+01 1.331250000000D+01 6.667063424238D-09 2.414412061245D+00
    5.699694156647D-07 9.170862496831D-03 4.071742296219D-06 5.153658184052D+03
    1.439840000000D+05-1.043081283569D-07 1.529504710605D+00-1.378357410431D-07
    8.894541307519D-01 2.629062500000D+02 6.814375256367D-01-8.970730809803D-09
    1.296482575132D-10 1.000000000000D+00 1.516000000000D+03 0.000000000000D+00
    2.000000000000D+00 0.000000000000D+00-1.210719347000D-08 1.800000000000D+01
    1.401600000000D+05
25 09  1 26 16  0  0.0 2.006175927818D-04 2.569322532509D-11 0.000000000000D+00
    4.500000000000D+01 7.031250000000D+00 4.785199322759D-09 7.786337369919D-01
    2.272427082062D-07 1.179636013694D-02 7.934868335724D-07 5.153671478271D+03
    1.440000000000D+05-1.303851604462D-07-1.500898972867D+00-2.067536115646D-07
    9.678041156232D-01 3.685000000000D+02-1.234183945767D+00-8.670718313078D-09
    8.857511808063D-11 1.000000000000D+00 1.516000000000D+03 0.000000000000D+00
    2.800000000000D+00 0.000000000000D+00-7.450580596924D-09 4.500000000000D+01
    1.428600000000D+05
32 09  1 26 15 59 44.0 3.006262704730D-04-2.955857780762D-12 0.000000000000D+00
    4.700000000000D+01 2.265625000000D+01 4.058740491404D-09-2.946889808440D+00
    1.104548573494D-06 1.361166569404D-02 1.097097992897D-05 5.153653242111D+03
    1.439840000000D+05 1.247972249985D-07 2.867883184012D+00 1.657754182816D-07
    9.659741733416D-01 1.658125000000D+02-1.206357270423D+00-7.438524130102D-09
   -5.182358723185D-10 1.000000000000D+00 1.516000000000D+03 0.000000000000D+00
    2.000000000000D+00 0.000000000000D+00-3.259629011154D-09 4.700000000000D+01
    1.432500000000D+05
20 09  1 26 18  0  0.0 9.256973862648D-05-1.136868377216D-12 0.000000000000D+00
    4.600000000000D+01-6.062500000000D+00 4.715910722325D-09 1.557772779055D+00
   -4.321336746216D-07 3.890952910297D-03 1.015141606331D-05 5.153693170547D+03
    1.512000000000D+05-5.029141902924D-08 2.760897772943D+00-4.284083843231D-08
    9.439027830311D-01 1.739375000000D+02 1.308815012942D+00-8.026405760589D-09
   -5.789526871319D-10 1.000000000000D+00 1.516000000000D+03 0.000000000000D+00
    2.000000000000D+00 0.000000000000D+00-6.519258022308D-09 4.600000000000D+01
    1.440000000000D+05
13 09  1 26 18  0  0.0 2.863975241780D-04 1.364242052659D-12 0.000000000000D+00
    8.500000000000D+01 1.245000000000D+02 3.588006597734D-09-1.726770686244D-01
    6.366521120071D-06 3.719753585756D-03 7.437542080879D-06 5.153762166977D+03
    1.512000000000D+05-9.685754776001D-08-2.399794512114D+00 8.009374141693D-08
    9.953826815241D-01 2.558750000000D+02 1.507115217535D+00-7.676748338811D-09
    2.496532562031D-10 1.000000000000D+00 1.516000000000D+03 0.000000000000D+00
    2.000000000000D+00 0.000000000000D+00-1.117587089539D-08 8.500000000000D+01
    1.440000000000D+05
 4 09  1 26 18  0  0.0-3.138021565974D-04-1.364242052659D-11 0.000000000000D+00
    9.500000000000D+01-4.687500000000D+00 5.543088034723D-09 1.978831159701D+00
   -2.142041921616D-07 8.640945539810D-03 4.883855581284D-06 5.153657455444D+03
    1.512000000000D+05-1.937150955200D-07 1.742113428737D+00 5.774199962616D-08
    9.406567301971D-01 2.793750000000D+02 4.700973798428D-01-8.471067139663D-09
   -1.250052069686D-10 1.000000000000D+00 1.516000000000D+03 0.000000000000D+00
    2.800000000000D+00 0.000000000000D+00-6.053596735001D-09 9.500000000000D+01
    1.440000000000D+05
11 09  1 26 17 59 44.0 9.380746632814D-06-1.136868377216D-12 0.000000000000D+00
    1.900000000000D+01 1.706250000000D+01 6.675992367593D-09-2.818588093691D+00
    7.618218660355D-07 9.170177043416D-03 3.866851329803D-06 5.153659509659D+03
    1.511840000000D+05 9.313225746155D-09 1.529439840428D+00-2.123415470123D-07
    8.894550377611D-01 2.663437500000D+02 6.814578982339D-01-9.011089633767D-09
    1.771502361613D-10 1.000000000000D+00 1.516000000000D+03 0.000000000000D+00
    2.000000000000D+00 0.000000000000D+00-1.210719347000D-08 1.900000000000D+01
    1.440000000000D+05
17 09  1 26 18  0  0.0 4.525808617473D-05 9.094947017729D-13 0.000000000000D+00
    6.100000000000D+01 1.221875000000D+01 4.621621080497D-09 1.995010994159D-01
    6.277114152908D-07 4.164076875895D-03 1.000799238682D-05 5.153635675430D+03
    1.512000000000D+05 5.587935447693D-09 7.034569340792D-01 7.078051567078D-08
    9.597813163443D-01 1.864375000000D+02-2.761816606919D+00-7.978903781941D-09
    5.707380592453D-10 1.000000000000D+00 1.516000000000D+03 0.000000000000D+00
    2.000000000000D+00 0.000000000000D+00-1.024454832077D-08 6.100000000000D+01
    1.440000000000D+05
23 09  1 26 18  0  0.0 3.858665004373D-04 7.958078640513D-13 0.000000000000D+00
    3.700000000000D+01 1.252187500000D+02 4.062669226480D-09-1.090758117242D+00
    6.336718797684D-06 5.774458288215D-03 7.726252079010D-06 5.153652456284D+03
    1.512000000000D+05-8.195638656616D-08-2.448929404128D+00-1.061707735062D-07
    9.710449502284D-01 2.370312500000D+02 2.881409058322D+00-7.859613098719D-09
    2.467959943295D-10 1.000000000000D+00 1.516000000000D+03 0.000000000000D+00
    2.000000000000D+00 0.000000000000D+00-2.002343535423D-08 3.700000000000D+01
    1.440000000000D+05
25 09  1 26 18  0  0.0 2.008019946516D-04 2.569322532509D-11 0.000000000000D+00
    5.900000000000D+01 1.106250000000D+01 4.540903432569D-09 1.828728286331D+00
    4.302710294724D-07 1.179645152297D-02 3.427267074585D-07 5.153673444748D+03
    1.512000000000D+05 2.682209014893D-07-1.500959600581D+00-5.029141902924D-08
    9.678065703998D-01 3.750937500000D+02-1.234095717177D+00-8.244629136182D-09
    4.964492505326D-11 1.000000000000D+00 1.516000000000D+03 0.000000000000D+00
    2.800000000000D+00 0.000000000000D+00-7.450580596924D-09 5.900000000000D+01
    1.440000000000D+05
31 09  1 26 18  0  0.0-4.919618368149D-05-1.477928890381D-12 0.000000000000D+00
    1.020000000000D+02-4.375000000000D-01 4.541260590303D-09-2.746035935510D+00
    5.401670932770D-08 7.164325797930D-03 3.166496753693D-07 5.153629133224D+03
    1.512000000000D+05 8.754432201385D-08-1.408865728570D+00 7.264316082001D-08
    9.708859910129D-01 3.786250000000D+02-1.202558663190D+00-8.261058391955D-09
    5.857386840816D-11 1.000000000000D+00 1.516000000000D+03 0.000000000000D+00
    4.000000000000D+00 0.000000000000D+00-1.303851604462D-08 1.020000000000D+02
    1.440000000000D+05
32 09  1 26 17 59 44.0 3.006048500538D-04-2.955857780762D-12 0.000000000000D+00
    4.800000000000D+01 1.546875000000D+01 4.085170163735D-09-1.896635208549D+00
    9.201467037201D-07 1.361074089073D-02 1.086108386517D-05 5.153655620575D+03
    1.511840000000D+05-9.313225746155D-08 2.867829610489D+00 3.762543201447D-07
    9.659694071545D-01 1.716875000000D+02-1.206422714063D+00-7.659247609835D-09
   -5.632377468272D-10 1.000000000000D+00 1.516000000000D+03 0.000000000000D+00
    2.000000000000D+00 0.000000000000D+00-3.259629011154D-09 4.800000000000D+01
    1.440000000000D+05
 7 09  1 26 18  0  0.0 2.312567085028D-05-2.273736754432D-13 0.000000000000D+00
    1.260000000000D+02-1.146875000000D+01 4.701267255223D-09-2.677143752595D+00
   -4.786998033524D-07 2.309896983206D-03 7.729977369308D-07 5.153677137375D+03
    1.512000000000D+05-1.490116119385D-08-1.406166710545D+00-2.980232238770D-08
    9.654741698859D-01 3.683750000000D+02 2.922490119638D+00-8.412850428989D-09
    4.143029716675D-11 1.000000000000D+00 1.516000000000D+03 0.000000000000D+00
    2.800000000000D+00 0.000000000000D+00-1.071020960808D-08 1.260000000000D+02
    1.457100000000D+05
 2 09  1 26 18  0  0.0 1.598508097231D-04-1.591615728103D-12 0.000000000000D+00
    7.200000000000D+01-4.031250000000D+00 5.509158049975D-09-8.568454834194D-01
   -1.229345798492D-07 8.932237396948D-03 4.595145583153D-06 5.153595464706D+03
    1.512000000000D+05-5.029141902924D-08 1.723577133152D+00-1.527369022369D-07
    9.414128072222D-01 2.820312500000D+02 2.706067702810D+00-8.522140695653D-09
    3.643008888800D-11 1.000000000000D+00 1.516000000000D+03 0.000000000000D+00
    2.000000000000D+00 0.000000000000D+00-1.722946763039D-08 7.200000000000D+01
    1.466100000000D+05
 7 09  1 26 17 59 44.0 2.312380820513D-05-2.273736754432D-13 0.000000000000D+00
    1.000000000000D+00-1.146875000000D+01 4.701267255223D-09-2.679478558146D+00
   -4.786998033524D-07 2.309899078682D-03 7.729977369308D-07 5.153677143097D+03
    1.511840000000D+05-1.490116119385D-08-1.406166578882D+00-2.980232238770D-08
    9.654741537938D-01 3.683750000000D+02 2.922491150996D+00-8.412850428989D-09
    4.143029716675D-11 1.000000000000D+00 1.516000000000D+03 0.000000000000D+00
    2.000000000000D+00 0.000000000000D+00-1.071020960808D-08 1.000000000000D+00
    1.483200000000D+05
